QIANFAN-17              
1 60395U 24140S   25236.59947918  .00000098  00000+0  13285-3 0  9992
2 60395  88.9839 310.8194 0016213 157.4212 202.7656 13.50965700 53261
QIANFAN-18              
1 60396U 24140T   25236.57899725  .00000095  00000+0  12818-3 0  9991
2 60396  88.9831 310.3636 0016018 141.5258 218.7039 13.50967619 52652
QIANFAN-19              
1 61552U 24185A   25236.55975504  .00000336  00000+0  16922-3 0  9991
2 61552  88.9772  90.5842 0005426 312.8598  47.2133 14.14130907 54091
QIANFAN-20              
1 61553U 24185B   25236.59250161  .00000405  00000+0  22708-3 0  9997
2 61553  88.9771  90.7932 0005763 354.3712   5.7406 14.08683350 53983
QIANFAN-21              
1 61554U 24185C   25236.59181328  .00000481  00000+0  20952-3 0  9999
2 61554  88.9686  89.8983 0011284  13.2801 346.8685 14.22384854 54318
QIANFAN-22              
1 61555U 24185D   25236.57048326  .00000152  00000+0  12003-3 0  9991
2 61555  88.9757  91.3336 0006296 350.0544  10.0501 13.86244064 53673
QIANFAN-23              
1 61556U 24185E   25236.61925046  .00000402  00000+0  19632-3 0  9993
2 61556  88.9765  90.4380 0006641 326.0926  33.9837 14.16104512 54161
QIANFAN-24              
1 61557U 24185F   25236.61728489  .00000491  00000+0  20931-3 0  9998
2 61557  88.9745  90.0235 0007829 307.5617  52.4863 14.23584805 54356
